start=new Date('2023-04-01T00:00:00.000Z').valueOf();
sats=[{"FILE":"3876192","BSTAR":"0.00003487100000","MEAN_MOTION_DDOT":"0.0000000000000","MEAN_MOTION_DOT":"0.00000267","CENTER_NAME":"EARTH","SEMIMAJOR_AXIS":"6917.880","REV_AT_EPOCH":"4025","OBJECT_TYPE":"PAYLOAD","PERIAPSIS":"539.130","DECAY_DATE":null,"COUNTRY_CODE":"US","LAUNCH_DATE":"2022-07-17","OBJECT_NAME":"STARLINK-4052","EPHEMERIS_TYPE":"0","MEAN_ANOMALY":"258.4629","INCLINATION":"53.2167","OBJECT_ID":"2022-083AR","APOAPSIS":"540.361","NORAD_CAT_ID":"53171","MEAN_MOTION":"15.08840022","MEAN_ELEMENT_THEORY":"SGP4","ECCENTRICITY":"0.00008900","GP_ID":"229197606","TIME_SYSTEM":"UTC","ELEMENT_SET_NO":"999","EPOCH":"2023-03-31T13:03:24.604128","TLE_LINE2":"2 53171  53.2167 275.9071 0000890 101.6463 258.4629 15.08840022 40259","ARG_OF_PERICENTER":"101.6463","RCS_SIZE":"LARGE","PERIOD":"95.438","CLASSIFICATION_TYPE":"U","TLE_LINE1":"1 53171U 22083AR  23090.54403477  .00000267  00000-0  34871-4 0  9992","REF_FRAME":"TEME","SITE":"AFETR","RA_OF_ASC_NODE":"275.9071"},{"MEAN_MOTION_DDOT":"0.0000000000000","BSTAR":"0.00086049000000","FILE":"3876519","SEMIMAJOR_AXIS":"6917.831","CENTER_NAME":"EARTH","MEAN_MOTION_DOT":"0.00013439","OBJECT_TYPE":"PAYLOAD","REV_AT_EPOCH":"3994","PERIAPSIS":"539.170","COUNTRY_CODE":"US","LAUNCH_DATE":"2022-07-17","DECAY_DATE":null,"OBJECT_ID":"2022-083AS","MEAN_ANOMALY":"270.4066","INCLINATION":"53.2147","OBJECT_NAME":"STARLINK-4299","EPHEMERIS_TYPE":"0","NORAD_CAT_ID":"53172","APOAPSIS":"540.223","MEAN_MOTION":"15.08856016","ECCENTRICITY":"0.00007610","GP_ID":"229205823","MEAN_ELEMENT_THEORY":"SGP4","EPOCH":"2023-03-31T19:50:48.761664","ELEMENT_SET_NO":"999","TIME_SYSTEM":"UTC","ARG_OF_PERICENTER":"89.7013","TLE_LINE2":"2 53172  53.2147 299.7926 0000761  89.7013 270.4066 15.08856016 39948","RCS_SIZE":"LARGE","CLASSIFICATION_TYPE":"U","PERIOD":"95.437","REF_FRAME":"TEME","TLE_LINE1":"1 53172U 22083AS  23090.82695326  .00013439  00000-0  86049-3 0  9998","RA_OF_ASC_NODE":"299.7926","SITE":"AFETR"},{"CENTER_NAME":"EARTH","SEMIMAJOR_AXIS":"6917.882","MEAN_MOTION_DOT":"0.00004279","BSTAR":"0.00028680000000","MEAN_MOTION_DDOT":"0.0000000000000","FILE":"3876192","PERIAPSIS":"538.803","OBJECT_TYPE":"PAYLOAD","REV_AT_EPOCH":"4017","OBJECT_ID":"2022-083AT","OBJECT_NAME":"STARLINK-4300","INCLINATION":"53.2150","MEAN_ANOMALY":"283.3133","EPHEMERIS_TYPE":"0","COUNTRY_CODE":"US","LAUNCH_DATE":"2022-07-17","DECAY_DATE":null,"NORAD_CAT_ID":"53173","APOAPSIS":"540.691","GP_ID":"229197607","ECCENTRICITY":"0.00013650","MEAN_ELEMENT_THEORY":"SGP4","MEAN_MOTION":"15.08839437","TLE_LINE2":"2 53173  53.2150 281.2622 0001365  76.8011 283.3133 15.08839437 40171","ARG_OF_PERICENTER":"76.8011","TIME_SYSTEM":"UTC","EPOCH":"2023-03-31T12:23:03.024672","ELEMENT_SET_NO":"999","CLASSIFICATION_TYPE":"U","PERIOD":"95.438","RCS_SIZE":"LARGE","RA_OF_ASC_NODE":"281.2622","SITE":"AFETR","REF_FRAME":"TEME","TLE_LINE1":"1 53173U 22083AT  23090.51600723  .00004279  00000-0  28680-3 0  9991"},{"SEMIMAJOR_AXIS":"6917.874","CENTER_NAME":"EARTH","MEAN_MOTION_DOT":"0.00010827","MEAN_MOTION_DDOT":"0.0000000000000","BSTAR":"0.00069725000000","FILE":"3876200","PERIAPSIS":"538.711","OBJECT_TYPE":"PAYLOAD","REV_AT_EPOCH":"3970","OBJECT_ID":"2022-083AU","OBJECT_NAME":"STARLINK-4205","MEAN_ANOMALY":"275.9151","INCLINATION":"53.2164","EPHEMERIS_TYPE":"0","COUNTRY_CODE":"US","LAUNCH_DATE":"2022-07-17","DECAY_DATE":null,"NORAD_CAT_ID":"53174","APOAPSIS":"540.767","ECCENTRICITY":"0.00014860","GP_ID":"229197629","MEAN_ELEMENT_THEORY":"SGP4","MEAN_MOTION":"15.08842215","ARG_OF_PERICENTER":"84.2010","TLE_LINE2":"2 53174  53.2164 315.8505 0001486  84.2010 275.9151 15.08842215 39709","ELEMENT_SET_NO":"999","EPOCH":"2023-03-31T14:38:50.663904","TIME_SYSTEM":"UTC","CLASSIFICATION_TYPE":"U","PERIOD":"95.437","RCS_SIZE":"LARGE","RA_OF_ASC_NODE":"315.8505","SITE":"AFETR","REF_FRAME":"TEME","TLE_LINE1":"1 53174U 22083AU  23090.61030861  .00010827  00000-0  69725-3 0  9994"},{"MEAN_ELEMENT_THEORY":"SGP4","GP_ID":"229205219","ECCENTRICITY":"0.00018970","MEAN_MOTION":"15.08843387","TLE_LINE2":"2 53175  53.2162 314.6795 0001897  53.9461 306.1707 15.08843387 39744","ARG_OF_PERICENTER":"53.9461","TIME_SYSTEM":"UTC","ELEMENT_SET_NO":"999","EPOCH":"2023-03-31T20:55:05.281824","PERIOD":"95.437","CLASSIFICATION_TYPE":"U","RCS_SIZE":"LARGE","SITE":"AFETR","RA_OF_ASC_NODE":"314.6795","TLE_LINE1":"1 53175U 22083AV  23090.87158891  .00002971  00000-0  20467-3 0  9998","REF_FRAME":"TEME","MEAN_MOTION_DOT":"0.00002971","CENTER_NAME":"EARTH","SEMIMAJOR_AXIS":"6917.870","FILE":"3876507","BSTAR":"0.00020467000000","MEAN_MOTION_DDOT":"0.0000000000000","PERIAPSIS":"538.423","REV_AT_EPOCH":"3974","OBJECT_TYPE":"PAYLOAD","MEAN_ANOMALY":"306.1707","INCLINATION":"53.2162","EPHEMERIS_TYPE":"0","OBJECT_NAME":"STARLINK-4292","OBJECT_ID":"2022-083AV","DECAY_DATE":null,"COUNTRY_CODE":"US","LAUNCH_DATE":"2022-07-17","APOAPSIS":"541.047","NORAD_CAT_ID":"53175"},{"SITE":"AFETR","RA_OF_ASC_NODE":"289.9195","TLE_LINE1":"1 53176U 22083AW  23090.81751892  .00171001  00000-0  10347-1 0  9998","REF_FRAME":"TEME","PERIOD":"95.402","CLASSIFICATION_TYPE":"U","RCS_SIZE":"LARGE","ARG_OF_PERICENTER":"83.0102","TLE_LINE2":"2 53176  53.2152 289.9195 0001498  83.0102 277.1061 15.09397383 40085","EPOCH":"2023-03-31T19:37:13.634688","ELEMENT_SET_NO":"999","TIME_SYSTEM":"UTC","MEAN_ELEMENT_THEORY":"SGP4","GP_ID":"229205677","ECCENTRICITY":"0.00014980","MEAN_MOTION":"15.09397383","APOAPSIS":"539.078","NORAD_CAT_ID":"53176","OBJECT_NAME":"STARLINK-4294","EPHEMERIS_TYPE":"0","INCLINATION":"53.2152","MEAN_ANOMALY":"277.1061","OBJECT_ID":"2022-083AW","DECAY_DATE":null,"COUNTRY_CODE":"US","LAUNCH_DATE":"2022-07-17","PERIAPSIS":"537.006","REV_AT_EPOCH":"4008","OBJECT_TYPE":"PAYLOAD","MEAN_MOTION_DOT":"0.00171001","SEMIMAJOR_AXIS":"6916.177","CENTER_NAME":"EARTH","FILE":"3876507","MEAN_MOTION_DDOT":"0.0000000000000","BSTAR":"0.01034700000000"},{"MEAN_MOTION":"15.08843817","GP_ID":"229197979","ECCENTRICITY":"0.00009080","MEAN_ELEMENT_THEORY":"SGP4","TIME_SYSTEM":"UTC","ELEMENT_SET_NO":"999","EPOCH":"2023-03-31T12:12:26.461440","TLE_LINE2":"2 53177  53.2161 281.2993 0000908 102.2683 257.8411 15.08843817 40171","ARG_OF_PERICENTER":"102.2683","RCS_SIZE":"LARGE","CLASSIFICATION_TYPE":"U","PERIOD":"95.437","REF_FRAME":"TEME","TLE_LINE1":"1 53177U 22083AX  23090.50863960 -.00000590  00000-0 -18996-4 0  9992","RA_OF_ASC_NODE":"281.2993","SITE":"AFETR","BSTAR":"-0.00001899600000","MEAN_MOTION_DDOT":"0.0000000000000","FILE":"3876201","CENTER_NAME":"EARTH","SEMIMAJOR_AXIS":"6917.869","MEAN_MOTION_DOT":"-0.00000590","OBJECT_TYPE":"PAYLOAD","REV_AT_EPOCH":"4017","PERIAPSIS":"539.106","COUNTRY_CODE":"US","LAUNCH_DATE":"2022-07-17","DECAY_DATE":null,"OBJECT_ID":"2022-083AX","OBJECT_NAME":"STARLINK-4298","INCLINATION":"53.2161","MEAN_ANOMALY":"257.8411","EPHEMERIS_TYPE":"0","NORAD_CAT_ID":"53177","APOAPSIS":"540.362"},{"LAUNCH_DATE":"2022-07-17","COUNTRY_CODE":"US","DECAY_DATE":null,"OBJECT_ID":"2022-083AY","INCLINATION":"53.2162","EPHEMERIS_TYPE":"0","MEAN_ANOMALY":"254.4022","OBJECT_NAME":"STARLINK-4280","NORAD_CAT_ID":"53178","APOAPSIS":"540.443","MEAN_MOTION_DDOT":"0.0000000000000","BSTAR":"0.00135340000000","FILE":"3876507","SEMIMAJOR_AXIS":"6917.837","CENTER_NAME":"EARTH","MEAN_MOTION_DOT":"0.00021325","OBJECT_TYPE":"PAYLOAD","REV_AT_EPOCH":"3986","PERIAPSIS":"538.961","RCS_SIZE":"LARGE","CLASSIFICATION_TYPE":"U","PERIOD":"95.437","REF_FRAME":"TEME","TLE_LINE1":"1 53178U 22083AY  23090.86514351  .00021325  00000-0  13534-2 0  9997","RA_OF_ASC_NODE":"304.7088","SITE":"AFETR","MEAN_MOTION":"15.08854066","GP_ID":"229205679","ECCENTRICITY":"0.00010710","MEAN_ELEMENT_THEORY":"SGP4","EPOCH":"2023-03-31T20:45:48.399264","ELEMENT_SET_NO":"999","TIME_SYSTEM":"UTC","TLE_LINE2":"2 53178  53.2162 304.7088 0001071 105.7089 254.4022 15.08854066 39862","ARG_OF_PERICENTER":"105.7089"},{"GP_ID":"229190817","ECCENTRICITY":"0.00012760","MEAN_ELEMENT_THEORY":"SGP4","MEAN_MOTION":"15.08845883","TLE_LINE2":"2 53179  53.2162 267.3135 0001276  93.0596 267.0542 15.08845883 40348","ARG_OF_PERICENTER":"93.0596","EPOCH":"2023-03-31T04:41:16.717632","ELEMENT_SET_NO":"999","TIME_SYSTEM":"UTC","CLASSIFICATION_TYPE":"U","PERIOD":"95.437","RCS_SIZE":"LARGE","RA_OF_ASC_NODE":"267.3135","SITE":"AFETR","REF_FRAME":"TEME","TLE_LINE1":"1 53179U 22083AZ  23090.19533238  .00003932  00000-0  26494-3 0  9993","SEMIMAJOR_AXIS":"6917.862","CENTER_NAME":"EARTH","MEAN_MOTION_DOT":"0.00003932","MEAN_MOTION_DDOT":"0.0000000000000","BSTAR":"0.00026494000000","FILE":"3875850","PERIAPSIS":"538.845","OBJECT_TYPE":"PAYLOAD","REV_AT_EPOCH":"4034","OBJECT_ID":"2022-083AZ","OBJECT_NAME":"STARLINK-4276","INCLINATION":"53.2162","MEAN_ANOMALY":"267.0542","EPHEMERIS_TYPE":"0","LAUNCH_DATE":"2022-07-17","COUNTRY_CODE":"US","DECAY_DATE":null,"NORAD_CAT_ID":"53179","APOAPSIS":"540.610"},{"MEAN_MOTION":"15.08839128","MEAN_ELEMENT_THEORY":"SGP4","ECCENTRICITY":"0.00009470","GP_ID":"229205222","EPOCH":"2023-03-31T17:52:16.597920","ELEMENT_SET_NO":"999","TIME_SYSTEM":"UTC","TLE_LINE2":"2 53180  53.2151 265.0538 0000947  63.0606 297.0482 15.08839128 40423","ARG_OF_PERICENTER":"63.0606","RCS_SIZE":"LARGE","PERIOD":"95.438","CLASSIFICATION_TYPE":"U","TLE_LINE1":"1 53180U 22083BA  23090.74463655  .00000697  00000-0  61868-4 0  9991","REF_FRAME":"TEME","SITE":"AFETR","RA_OF_ASC_NODE":"265.0538","FILE":"3876507","MEAN_MOTION_DDOT":"0.0000000000000","BSTAR":"0.00006186800000","MEAN_MOTION_DOT":"0.00000697","SEMIMAJOR_AXIS":"6917.883","CENTER_NAME":"EARTH","REV_AT_EPOCH":"4042","OBJECT_TYPE":"PAYLOAD","PERIAPSIS":"539.093","DECAY_DATE":null,"COUNTRY_CODE":"US","LAUNCH_DATE":"2022-07-17","INCLINATION":"53.2151","OBJECT_NAME":"STARLINK-4258","EPHEMERIS_TYPE":"0","MEAN_ANOMALY":"297.0482","OBJECT_ID":"2022-083BA","APOAPSIS":"540.403","NORAD_CAT_ID":"53180"}];
